[{"OBJECT_NAME":"STARLINK-4572","OBJECT_ID":"2022-105AW","EPOCH":"2026-03-09T16:09:10.695744","MEAN_MOTION":15.21020685,"ECCENTRICITY":0.00018422,"INCLINATION":97.6182,"RA_OF_ASC_NODE":315.6347,"ARG_OF_PERICENTER":18.3505,"MEAN_ANOMALY":341.7796,"EPHEMERIS_TYPE":0,"CLASSIFICATION_TYPE":"U","NORAD_CAT_ID":53692,"ELEMENT_SET_NO":999,"REV_AT_EPOCH":19355,"BSTAR":0.00056421038,"MEAN_MOTION_DOT":0.00012459,"MEAN_MOTION_DDOT":0},{"OBJECT_NAME":"OBJECT D","OBJECT_ID":"2025-234D","EPOCH":"2026-03-09T21:45:39.162528","MEAN_MOTION":15.22662806,"ECCENTRICITY":0.00034878,"INCLINATION":97.4338,"RA_OF_ASC_NODE":138.0864,"ARG_OF_PERICENTER":166.6055,"MEAN_ANOMALY":193.5275,"EPHEMERIS_TYPE":0,"CLASSIFICATION_TYPE":"U","NORAD_CAT_ID":66056,"ELEMENT_SET_NO":999,"REV_AT_EPOCH":2155,"BSTAR":0.00081390028,"MEAN_MOTION_DOT":0.00018914,"MEAN_MOTION_DDOT":0}]
